{
    "links": {
        "self": "http://www.neowsapp.com/rest/v1/neo/3458939?api_key=iIulBulltgU6a56xZRHN4H3l9WmuAYTsLGpBGhQ2"
    },
    "id": "3458939",
    "neo_reference_id": "3458939",
    "name": "(2009 HT58)",
    "designation": "2009 HT58",
    "nasa_jpl_url": "http://ssd.jpl.nasa.gov/sbdb.cgi?sstr=3458939",
    "absolute_magnitude_h": 25.2,
    "estimated_diameter": {
        "kilometers": {
            "estimated_diameter_min": 0.0242412481,
            "estimated_diameter_max": 0.0542050786
        },
        "meters": {
            "estimated_diameter_min": 24.2412481101,
            "estimated_diameter_max": 54.2050786336
        },
        "miles": {
            "estimated_diameter_min": 0.0150628086,
            "estimated_diameter_max": 0.0336814639
        },
        "feet": {
            "estimated_diameter_min": 79.5316564495,
            "estimated_diameter_max": 177.8381901842
        }
    },
    "is_potentially_hazardous_asteroid": false,
    "close_approach_data": [
        {
            "close_approach_date": "2009-04-26",
            "close_approach_date_full": "2009-Apr-26 04:31",
            "epoch_date_close_approach": 1240720260000,
            "relative_velocity": {
                "kilometers_per_second": "9.8587533722",
                "kilometers_per_hour": "35491.5121397918",
                "miles_per_hour": "22053.0454181945"
            },
            "miss_distance": {
                "astronomical": "0.0583200122",
                "lunar": "22.6864847458",
                "kilometers": "8724549.603494014",
                "miles": "5421183.7399808332"
            },
            "orbiting_body": "Earth"
        },
        {
            "close_approach_date": "2181-04-26",
            "close_approach_date_full": "2181-Apr-26 19:09",
            "epoch_date_close_approach": 6668593740000,
            "relative_velocity": {
                "kilometers_per_second": "9.9396055948",
                "kilometers_per_hour": "35782.5801413649",
                "miles_per_hour": "22233.9037550609"
            },
            "miss_distance": {
                "astronomical": "0.0578431863",
                "lunar": "22.5009994707",
                "kilometers": "8653217.464493181",
                "miles": "5376860.0041246578"
            },
            "orbiting_body": "Earth"
        }
    ],
    "orbital_data": {
        "orbit_id": "6",
        "orbit_determination_date": "2017-04-06 09:00:42",
        "first_observation_date": "2009-04-24",
        "last_observation_date": "2009-04-26",
        "data_arc_in_days": 2,
        "observations_used": 30,
        "orbit_uncertainty": "8",
        "minimum_orbit_intersection": ".056694",
        "jupiter_tisserand_invariant": "4.809",
        "epoch_osculation": "2454947.5",
        "eccentricity": ".2128671330409337",
        "semi_major_axis": "1.346983644395802",
        "inclination": "17.95096748221106",
        "ascending_node_longitude": "34.08810205967836",
        "orbital_period": "571.0076286387538",
        "perihelion_distance": "1.060255097760239",
        "perihelion_argument": "189.9841440676865",
        "aphelion_distance": "1.633712191031365",
        "perihelion_time": "2454956.613397082085",
        "mean_anomaly": "354.254327289161",
        "mean_motion": ".6304644315492199",
        "equinox": "J2000",
        "orbit_class": {
            "orbit_class_type": "AMO",
            "orbit_class_description": "Near-Earth asteroid orbits similar to that of 1221 Amor",
            "orbit_class_range": "1.017 AU < q (perihelion) < 1.3 AU"
        }
    },
    "is_sentry_object": false
}